[{"OBJECT_NAME":"LEMUR-2-ANDIS","OBJECT_ID":"2017-042P","EPOCH":"2026-03-09T13:25:33.116448","MEAN_MOTION":15.30557934,"ECCENTRICITY":0.0009101,"INCLINATION":97.3659,"RA_OF_ASC_NODE":249.795,"ARG_OF_PERICENTER":4.3248,"MEAN_ANOMALY":355.807,"EPHEMERIS_TYPE":0,"CLASSIFICATION_TYPE":"U","NORAD_CAT_ID":42838,"ELEMENT_SET_NO":999,"REV_AT_EPOCH":47319,"BSTAR":0.00079875,"MEAN_MOTION_DOT":0.00023598,"MEAN_MOTION_DDOT":0},{"OBJECT_NAME":"STARLINK-31890","OBJECT_ID":"2024-093D","EPOCH":"2026-03-09T10:02:52.120320","MEAN_MOTION":15.27575981,"ECCENTRICITY":0.00013255,"INCLINATION":42.998,"RA_OF_ASC_NODE":206.9937,"ARG_OF_PERICENTER":291.6017,"MEAN_ANOMALY":68.4693,"EPHEMERIS_TYPE":0,"CLASSIFICATION_TYPE":"U","NORAD_CAT_ID":59785,"ELEMENT_SET_NO":999,"REV_AT_EPOCH":10269,"BSTAR":-0.0001177882,"MEAN_MOTION_DOT":-3.501e-5,"MEAN_MOTION_DDOT":0}]
